*******************************************************************************
Ephemeris / PORT_LOGIN Sun Nov 27 10:13:41 2011 Pasadena, USA    / Horizons    
*******************************************************************************
Target body name: Carme (511)                     {source: JUP282}
Center body name: Solar System Barycenter (0)     {source: DE405}
Center-site name: BODY CENTER
*******************************************************************************
Start time      : A.D. 2001-Jan-01 10:00:00.0000 CT 
Stop  time      : A.D. 2001-Jan-02 00:00:00.0000 CT 
Step-size       : 60 minutes
*******************************************************************************
Center geodetic : 0.00000000,0.00000000,0.0000000 {E-lon(deg),Lat(deg),Alt(km)}
Center cylindric: 0.00000000,0.00000000,0.0000000 {E-lon(deg),Dxy(km),Dz(km)}
Center radii    : (undefined)                                                  
Output units    : AU-D                                                         
Output format   : 03
Reference frame : ICRF/J2000.0                                                 
Output type     : GEOMETRIC cartesian states
Coordinate systm: Earth Mean Equator and Equinox of Reference Epoch            
*******************************************************************************
JDCT 
   X     Y     Z
   VX    VY    VZ
   LT    RG    RR
*******************************************************************************
$$SOE
2451910.916666667 = A.D. 2001-Jan-01 10:00:00.0000 (CT)
   1.930329645761414E+00  4.351320665325352E+00  1.858681340231088E+00
  -6.609612323486121E-03  1.565675354680863E-03  7.533473709780751E-04
   2.951445858475969E-02  5.110270090544734E+00 -8.895307502950682E-04
2451910.958333333 = A.D. 2001-Jan-01 11:00:00.0000 (CT)
   1.930054230560342E+00  4.351385893052013E+00  1.858712723081478E+00
  -6.610317314430513E-03  1.565255553590369E-03  7.530294685791029E-04
   2.951424447829069E-02  5.110233019158804E+00 -8.898957233448724E-04
2451911.000000000 = A.D. 2001-Jan-01 12:00:00.0000 (CT)
   1.929778785986341E+00  4.351451103290532E+00  1.858744092688541E+00
  -6.611022224092120E-03  1.564835923775737E-03  7.527116912809946E-04
   2.951403028402901E-02  5.110195932572043E+00 -8.902603902310032E-04
2451911.041666667 = A.D. 2001-Jan-01 13:00:00.0000 (CT)
   1.929503312042798E+00  4.351516296048040E+00  1.858775449057488E+00
  -6.611727052399604E-03  1.564416465134094E-03  7.523940390388572E-04
   2.951381600204831E-02  5.110158830797204E+00 -8.906247510116006E-04
2451911.083333333 = A.D. 2001-Jan-01 14:00:00.0000 (CT)
   1.929227808733105E+00  4.351581471331668E+00  1.858806792193530E+00
  -6.612431799281755E-03  1.563997177562624E-03  7.520765118077825E-04
   2.951360163242225E-02  5.110121713847041E+00 -8.909888057448453E-04
2451911.125000000 = A.D. 2001-Jan-01 15:00:00.0000 (CT)
   1.928952276060656E+00  4.351646629148544E+00  1.858838122101874E+00
  -6.613136464667516E-03  1.563578060958561E-03  7.517591095428470E-04
   2.951338717522449E-02  5.110084581734307E+00 -8.913525544889720E-04
2451911.166666667 = A.D. 2001-Jan-01 16:00:00.0000 (CT)
   1.928676714028849E+00  4.351711769505788E+00  1.858869438787727E+00
  -6.613841048485967E-03  1.563159115219190E-03  7.514418321991136E-04
   2.951317263052864E-02  5.110047434471750E+00 -8.917159973022615E-04
2451911.208333333 = A.D. 2001-Jan-01 17:00:00.0000 (CT)
   1.928401122641083E+00  4.351776892410518E+00  1.858900742256292E+00
  -6.614545550666331E-03  1.562740340241850E-03  7.511246797316320E-04
   2.951295799840832E-02  5.110010272072115E+00 -8.920791342430431E-04
2451911.250000000 = A.D. 2001-Jan-01 18:00:00.0000 (CT)
   1.928125501900761E+00  4.351841997869845E+00  1.858932032512772E+00
  -6.615249971137962E-03  1.562321735923929E-03  7.508076520954397E-04
   2.951274327893711E-02  5.109973094548144E+00 -8.924419653696907E-04
2451911.291666667 = A.D. 2001-Jan-01 19:00:00.0000 (CT)
   1.927849851811290E+00  4.351907085890879E+00  1.858963309562366E+00
  -6.615954309830354E-03  1.561903302162870E-03  7.504907492455628E-04
   2.951252847218863E-02  5.109935901912579E+00 -8.928044907406232E-04
2451911.333333333 = A.D. 2001-Jan-01 20:00:00.0000 (CT)
   1.927574172376079E+00  4.351972156480726E+00  1.858994573410274E+00
  -6.616658566673134E-03  1.561485038856166E-03  7.501739711370171E-04
   2.951231357823644E-02  5.109898694178161E+00 -8.931667104143030E-04
2451911.375000000 = A.D. 2001-Jan-01 21:00:00.0000 (CT)
   1.927298463598539E+00  4.352037209646484E+00  1.859025824061693E+00
  -6.617362741596050E-03  1.561066945901359E-03  7.498573177248091E-04
   2.951209859715409E-02  5.109861471357624E+00 -8.935286244492345E-04
2451911.416666667 = A.D. 2001-Jan-01 22:00:00.0000 (CT)
   1.927022725482084E+00  4.352102245395249E+00  1.859057061521816E+00
  -6.618066834528992E-03  1.560649023196045E-03  7.495407889639370E-04
   2.951188352901513E-02  5.109824233463701E+00 -8.938902329039665E-04
2451911.458333333 = A.D. 2001-Jan-01 23:00:00.0000 (CT)
   1.926746958030134E+00  4.352167263734113E+00  1.859088285795837E+00
  -6.618770845401962E-03  1.560231270637870E-03  7.492243848093909E-04
   2.951166837389309E-02  5.109786980509125E+00 -8.942515358370848E-04
2451911.500000000 = A.D. 2001-Jan-02 00:00:00.0000 (CT)
   1.926471161246109E+00  4.352232264670164E+00  1.859119496888947E+00
  -6.619474774145089E-03  1.559813688124527E-03  7.489081052161539E-04
   2.951145313186148E-02  5.109749712506624E+00 -8.946125333072162E-04
$$EOE
*******************************************************************************
Coordinate system description:

  Earth Mean Equator and Equinox of Reference Epoch

    Reference epoch: J2000.0
    xy-plane: plane of the Earth's mean equator at the reference epoch
    x-axis  : out along ascending node of instantaneous plane of the Earth's
              orbit and the Earth's mean equator at the reference epoch
    z-axis  : along the Earth mean north pole at the reference epoch

Symbol meaning [1 AU=149597870.691 km, 1 day=86400.0 s]:

    JDCT     Epoch Julian Date, Coordinate Time
      X      x-component of position vector (AU)                               
      Y      y-component of position vector (AU)                               
      Z      z-component of position vector (AU)                               
      VX     x-component of velocity vector (AU/day)                           
      VY     y-component of velocity vector (AU/day)                           
      VZ     z-component of velocity vector (AU/day)                           
      LT     One-way down-leg Newtonian light-time (day)                       
      RG     Range; distance from coordinate center (AU)                       
      RR     Range-rate; radial velocity wrt coord. center (AU/day)            

Geometric states/elements have no aberration corrections applied.

 Computations by ...
     Solar System Dynamics Group, Horizons On-Line Ephemeris System
     4800 Oak Grove Drive, Jet Propulsion Laboratory
     Pasadena, CA  91109   USA
     Information: http://ssd.jpl.nasa.gov/
     Connect    : telnet://ssd.jpl.nasa.gov:6775  (via browser)
                  telnet ssd.jpl.nasa.gov 6775    (via command-line)
     Author     : Jon.Giorgini@jpl.nasa.gov
*******************************************************************************
